SKYSAT-A                
1 39418U 13066C   22315.86124598  .00002389  00000+0  19305-3 0  9999
2 39418  97.5324  23.2466 0032034 116.6393 243.8119 15.00337466490759
SKYSAT-B                
1 40072U 14037D   22315.91128744  .00001042  00000+0  13885-3 0  9991
2 40072  98.3852 191.5498 0005841 191.2085 168.8998 14.81930763451080
SKYSAT-C1               
1 41601U 16040C   22315.76542377  .00012466  00000+0  32946-3 0  9992
2 41601  97.1414  27.3844 0002129 108.1253 252.0224 15.38553742356646
FLOCK 2P-9              
1 41610U 16040M   22316.12952516  .00071097  00000+0  14580-2 0  9991
2 41610  97.2106  12.1771 0004939 278.6902  81.3788 15.45790763355765
FLOCK 2P-8              
1 41613U 16040Q   22316.12450535  .00065052  00000+0  13791-2 0  9995
2 41613  97.2158  13.1560 0006008 290.1042  69.9560 15.44833064355913
FLOCK 2P-3              
1 41618U 16040V   22315.68363079  .00061331  00000+0  12659-2 0  9994
2 41618  97.2173  13.4650 0004787 300.8086  59.2692 15.45643595355868
SKYSAT-C4               
1 41771U 16058B   22316.11764154  .00013034  00000+0  34503-3 0  9991
2 41771  97.1010  16.8767 0001916 172.8792 187.2482 15.38492146343654
SKYSAT-C5               
1 41772U 16058C   22316.58786430  .00007366  00000+0  27133-3 0  9996
2 41772  97.2474  16.1258 0001769  84.9619 275.1823 15.28114267342384
SKYSAT-C2               
1 41773U 16058D   22315.70954137  .00011914  00000+0  31590-3 0  9997
2 41773  97.1027  16.8813 0001292 154.8303 205.3006 15.38465742343613
SKYSAT-C3               
1 41774U 16058E   22316.41754007  .00019886  00000+0  43335-3 0  9997
2 41774  97.1015  18.8425 0001252 145.3241 214.8090 15.44290835343809
FLOCK 3P-24             
1 41956U 17008J   22315.72768369  .00018622  00000+0  51157-3 0  9992
2 41956  97.2663  23.5751 0006960  45.0283 315.1525 15.37250749319914
FLOCK 3P-4              
1 41965U 17008T   22316.17590426  .00233344  00000+0  29610-2 0  9997
2 41965  97.2542  22.1611 0003168  61.0509 299.1065 15.58637038319795
FLOCK 3P-2              
1 41966U 17008U   22316.14570438  .00163532  00000+0  26482-2 0  9991
2 41966  97.2575  21.5775 0002880  47.8447 312.3050 15.52211777319658
FLOCK 3P-3              
1 41968U 17008W   22316.41955921  .00022177  00000+0  59193-3 0  9992
2 41968  97.2608  21.1511 0006746  58.7878 301.4027 15.38109526319638
FLOCK 3P-12             
1 41972U 17008AA  22316.17349274  .00192510  00000+0  28570-2 0  9991
2 41972  97.2554  21.8513 0002276  43.3189 316.8244 15.54532721319750
FLOCK 3P-11             
1 41975U 17008AD  22315.83160862  .00201348  00000+0  28813-2 0  9990
2 41975  97.2539  21.4242 0002821  33.7079 326.4355 15.55500235319596
FLOCK 3P-58             
1 41977U 17008AF  22316.43972684  .00270182  00000+0  29984-2 0  9994
2 41977  97.2538  23.0164 0002060  39.2371 320.9036 15.62046474319930
FLOCK 3P-57             
1 41978U 17008AG  22316.13635086  .00226191  00000+0  29319-2 0  9997
2 41978  97.2552  22.2744 0002838  48.4456 311.7043 15.58093244319704
FLOCK 3P-34             
1 41988U 17008AS  22316.13994157  .00132214  00000+0  24476-2 0  9996
2 41988  97.2602  21.8504 0004026  36.6838 323.4687 15.48524780319138
FLOCK 3P-33             
1 41990U 17008AU  22316.12296455  .00071247  00000+0  20375-2 0  9996
2 41990  97.2613  18.8953 0006354  59.6068 300.5803 15.35688579318940
FLOCK 3P-49             
1 42001U 17008BF  22316.17711955  .00151419  00000+0  26435-2 0  9995
2 42001  97.2570  21.8926 0002725  75.5113 284.6441 15.50133877319670
FLOCK 3P-61             
1 42009U 17008BP  22315.83246155  .00190746  00000+0  28484-2 0  9992
2 42009  97.2556  21.5761 0002789  71.9635 288.1923 15.54367590319753
FLOCK 3P-54             
1 42014U 17008BU  22316.14002341  .00133995  00000+0  23310-2 0  9996
2 42014  97.2585  21.5316 0003577  89.1149 271.0513 15.50297905319769
FLOCK 3P-23             
1 42018U 17008BY  22316.10728631  .00174471  00000+0  27234-2 0  9996
2 42018  97.2558  21.4260 0002898  41.8130 318.3344 15.53198204318581
FLOCK 3P-76             
1 42019U 17008BZ  22316.18519511  .00133192  00000+0  23481-2 0  9995
2 42019  97.2651  22.7198 0004875  75.5865 284.5927 15.49916822319655
FLOCK 3P-32             
1 42023U 17008CD  22315.84672146  .00173114  00000+0  28014-2 0  9991
2 42023  97.2556  21.3448 0003339  50.1774 309.9772 15.52195586319772
FLOCK 3P-80             
1 42026U 17008CG  22316.45260083  .00135855  00000+0  25739-2 0  9996
2 42026  97.2617  22.3978 0005212  83.1070 277.0773 15.47838024317824
FLOCK 3P-66             
1 42027U 17008CH  22316.14897470  .00146386  00000+0  25416-2 0  9992
2 42027  97.2587  21.3621 0002813  52.6839 307.4669 15.50308919319747
FLOCK 3P-65             
1 42028U 17008CJ  22315.83946662  .00171310  00000+0  27490-2 0  9995
2 42028  97.2561  21.6039 0003588  81.2590 278.9069 15.52436797319629
FLOCK 3P-50             
1 42029U 17008CK  22316.19277399  .00174479  00000+0  28202-2 0  9991
2 42029  97.2571  22.0186 0003358  87.5131 272.6506 15.52223160318998
FLOCK 3P-46             
1 42031U 17008CM  22315.71342575  .00071304  00000+0  12840-2 0  9994
2 42031  97.2555  20.8965 0002790  76.4195  44.1224 15.49559828319708
FLOCK 3P-64             
1 42034U 17008CQ  22316.13839408  .00166386  00000+0  26437-2 0  9992
2 42034  97.2549  21.6001 0002972  82.5309 277.6281 15.52732670319811
FLOCK 3P-55             
1 42041U 17008CX  22316.19121173  .00166828  00000+0  27353-2 0  9998
2 42041  97.2548  21.6662 0003788  91.9497 268.2189 15.51849209319830
FLOCK 3P-74             
1 42048U 17008DE  22316.40190854  .00066148  00000+0  14463-2 0  9993
2 42048  97.2640  22.2139 0005775  44.1996 315.9713 15.43915331318976
SKYSAT-C11              
1 42987U 17068A   22316.28822740  .00016081  00000+0  42485-3 0  9990
2 42987  97.3065  74.3633 0002998 185.8368 174.2843 15.38510366281115
SKYSAT-C10              
1 42988U 17068B   22316.06117359  .00015053  00000+0  39810-3 0  9996
2 42988  97.3116  74.4751 0003400  99.6967 260.4662 15.38492123281107
SKYSAT-C9               
1 42989U 17068C   22316.30792371  .00015266  00000+0  40236-3 0  9997
2 42989  97.3046  73.7491 0001290  41.2526 318.8817 15.38599041281334
SKYSAT-C8               
1 42990U 17068D   22315.84677006  .00014290  00000+0  37752-3 0  9999
2 42990  97.3129  74.6976 0002976  58.4760 301.6776 15.38539110281096
SKYSAT-C7               
1 42991U 17068E   22316.08395188  .00015194  00000+0  40160-3 0  9996
2 42991  97.3129  75.0187 0003164 192.9510 167.1654 15.38509236281134
SKYSAT-C6               
1 42992U 17068F   22316.59523600  .00014447  00000+0  38197-3 0  9992
2 42992  97.3149  75.9506 0003880 171.4486 188.6826 15.38510047281221
FLOCK 3M-4              
1 42997U 17068L   22316.28782708  .00109217  00000+0  26133-2 0  9995
2 42997  97.4722  71.8054 0012264 256.7663 103.2215 15.40969449279541
FLOCK 3P'-3             
1 43119U 18004J   22315.77153555  .00028555  00000+0  98114-3 0  9992
2 43119  97.3615  28.2100 0008070 199.0246 161.0695 15.30040714268717
FLOCK 3P'-2             
1 43120U 18004K   22316.14585766  .00025548  00000+0  89387-3 0  9990
2 43120  97.3621  28.1114 0008105 197.8727 162.2230 15.29473130268739
FLOCK 3P'-4             
1 43122U 18004M   22315.74014181  .00028064  00000+0  97878-3 0  9995
2 43122  97.3626  27.8929 0007838 201.4549 158.6364 15.29560037268675
FLOCK 3R-12             
1 43724U 18096F   22316.18808335  .00158451  00000+0  16971-2 0  9993
2 43724  97.3478  44.0229 0009956 231.9145 128.1216 15.63272923221157
FLOCK 3R-11             
1 43725U 18096G   22315.99039385  .00821603  00000+0  40744-2 0  9994
2 43725  97.3425  44.4059 0012558 266.7416  93.2415 15.79795329221165
FLOCK 3R-4              
1 43733U 18096Q   22316.21669083  .00529639  00000+0  28440-2 0  9996
2 43733  97.3443  45.0017 0015328 244.5091 175.8649 15.78712788221204
FLOCK 3R-7              
1 43742U 18096Z   22316.22851659  .01489832  11921-2  35134-2 0  9995
2 43742  97.3485  45.9436 0012398 251.7671 169.6584 15.96966511221273
FLOCK 3S-1              
1 43769U 18099M   22316.13526597  .00003008  00000+0  26778-3 0  9991
2 43769  97.6050  17.8804 0015154 134.0113 226.2360 14.96708973215097
SKYSAT-C12              
1 43797U 18099AR  22316.14211138  .00013402  00000+0  35385-3 0  9998
2 43797  97.1098  18.6368 0001734  77.4765 282.6675 15.38566506220183
SKYSAT-C13              
1 43802U 18099AW  22315.83169878  .00012909  00000+0  33187-3 0  9992
2 43802  97.1374  17.2539 0001971  86.7260 273.4211 15.39396831219622
FLOCK 3K-4              
1 43893U 18111T   22316.27168548  .00329209  00000+0  33522-2 0  9995
2 43893  97.1636 205.7532 0002699 171.5254 188.6051 15.64075653216433
FLOCK 3K-5              
1 43899U 18111Z   22316.20844322  .00228038  00000+0  30331-2 0  9998
2 43899  97.1689 204.5641 0004514 225.2474 134.8415 15.57389529216343
FLOCK 3K-7              
1 43902U 18111AC  22315.69976407  .00171578  00000+0  26130-2 0  9993
2 43902  97.1680 204.0055 0005612 222.3477 137.7345 15.53883149216262
FLOCK 3K-10             
1 43905U 18111AF  22316.25431550  .00316064  00000+0  33423-2 0  9998
2 43905  97.1642 205.7928 0004024 157.2862 202.8576 15.63145221216432
FLOCK 3K-9              
1 43906U 18111AG  22316.25224603  .00106598  00000+0  15913-2 0  9991
2 43906  97.1684 204.5365 0005075 236.4806 123.5964 15.54669682216359
FLOCK 4A-2              
1 44080U 19018C   22316.41922710  .00032637  00000+0  83027-3 0  9998
2 44080  97.2885  15.0106 0006321 296.9534  63.1065 15.39512959201384
FLOCK 4A-17             
1 44088U 19018L   22316.14572692  .00079779  00000+0  19549-2 0  9991
2 44088  97.2927  15.1305 0008101 307.3179  52.7328 15.40413276201347
FLOCK 4A-19             
1 44090U 19018N   22316.43426601  .00091216  00000+0  21830-2 0  9990
2 44090  97.2910  15.4484 0009543 307.1198  52.9176 15.41068831199076
FLOCK 4A-6              
1 44094U 19018S   22316.42605171  .00020946  00000+0  53837-3 0  9999
2 44094  97.2928  15.5859 0006603 312.4155  47.6532 15.39284108201404
